LANDSAT 9               
1 49260U 21088A   23314.15417165  .00000962  00000+0  22357-3 0  9991
2 49260  98.2155  22.1896 0001144  91.2257 268.9073 14.57110018112644
